{
  "type": "FeatureCollection",
  "features": [
    {
      "type": "Feature",
      "properties": {
        "norad_id": 19071,
        "name": "OSCAR 32",
        "group": "nnss",
        "lat": -52.394029958963365,
        "lon": 17.086091895528817,
        "alt_km": 1288.4603833643305,
        "timestamp": "2025-12-17T09:00:17.417002+00:00",
        "meta_object_name": "OSCAR 32",
        "meta_object_id": "1988-033B",
        "meta_epoch": "2025-12-17T00:33:18.312768",
        "meta_mean_motion": 13.27954583,
        "meta_eccentricity": 0.01886801,
        "meta_inclination": 90.3214,
        "meta_ra_of_asc_node": 16.6576,
        "meta_arg_of_pericenter": 154.915,
        "meta_mean_anomaly": 269.6423,
        "meta_ephemeris_type": 0,
        "meta_classification_type": "U",
        "meta_norad_cat_id": 19071,
        "meta_element_set_no": 999,
        "meta_rev_at_epoch": 82322,
        "meta_bstar": 0.00016252631,
        "meta_mean_motion_dot": 9e-07,
        "meta_mean_motion_ddot": 0,
        "tle_line1": "1 19071U 88033B   25351.02312862  .00000090  00000+0  16253-3 0  9998",
        "tle_line2": "2 19071  90.3214  16.6576 0188680 154.9150 269.6423 13.27954583823222"
      },
      "geometry": {
        "type": "Point",
        "coordinates": [
          17.086091895528817,
          -52.394029958963365
        ]
      }
    },
    {
      "type": "Feature",
      "properties": {
        "norad_id": 19223,
        "name": "NOVA 2",
        "group": "nnss",
        "lat": 60.55526387864071,
        "lon": 78.28945193040009,
        "alt_km": 1155.0377722764706,
        "timestamp": "2025-12-17T09:00:17.417012+00:00",
        "meta_object_name": "NOVA 2",
        "meta_object_id": "1988-052A",
        "meta_epoch": "2025-12-17T00:29:59.597088",
        "meta_mean_motion": 13.22936309,
        "meta_eccentricity": 0.00302249,
        "meta_inclination": 89.9872,
        "meta_ra_of_asc_node": 78.2672,
        "meta_arg_of_pericenter": 5.1764,
        "meta_mean_anomaly": 168.3928,
        "meta_ephemeris_type": 0,
        "meta_classification_type": "U",
        "meta_norad_cat_id": 19223,
        "meta_element_set_no": 999,
        "meta_rev_at_epoch": 81004,
        "meta_bstar": 0.00011588773,
        "meta_mean_motion_dot": 5.7e-07,
        "meta_mean_motion_ddot": 0,
        "tle_line1": "1 19223U 88052A   25351.02082867  .00000057  00000+0  11589-3 0  9997",
        "tle_line2": "2 19223  89.9872  78.2672 0030224   5.1764 168.3928 13.22936309810046"
      },
      "geometry": {
        "type": "Point",
        "coordinates": [
          78.28945193040009,
          60.55526387864071
        ]
      }
    },
    {
      "type": "Feature",
      "properties": {
        "norad_id": 19419,
        "name": "OSCAR 25",
        "group": "nnss",
        "lat": 76.22460649149814,
        "lon": -159.60009922469976,
        "alt_km": 1136.241701906877,
        "timestamp": "2025-12-17T09:00:17.417023+00:00",
        "meta_object_name": "OSCAR 25",
        "meta_object_id": "1988-074A",
        "meta_epoch": "2025-12-16T23:51:06.804864",
        "meta_mean_motion": 13.42624137,
        "meta_eccentricity": 0.00946536,
        "meta_inclination": 90.0344,
        "meta_ra_of_asc_node": 20.2582,
        "meta_arg_of_pericenter": 233.5052,
        "meta_mean_anomaly": 188.8394,
        "meta_ephemeris_type": 0,
        "meta_classification_type": "U",
        "meta_norad_cat_id": 19419,
        "meta_element_set_no": 999,
        "meta_rev_at_epoch": 82697,
        "meta_bstar": 0.0001773663,
        "meta_mean_motion_dot": 1.12e-06,
        "meta_mean_motion_ddot": 0,
        "tle_line1": "1 19419U 88074A   25350.99382876  .00000112  00000+0  17737-3 0  9999",
        "tle_line2": "2 19419  90.0344  20.2582 0094653 233.5052 188.8394 13.42624137826978"
      },
      "geometry": {
        "type": "Point",
        "coordinates": [
          -159.60009922469976,
          76.22460649149814
        ]
      }
    },
    {
      "type": "Feature",
      "properties": {
        "norad_id": 19420,
        "name": "OSCAR 31",
        "group": "nnss",
        "lat": -11.482412439242625,
        "lon": 20.6175977831685,
        "alt_km": 1140.4512274938952,
        "timestamp": "2025-12-17T09:00:17.417033+00:00",
        "meta_object_name": "OSCAR 31",
        "meta_object_id": "1988-074B",
        "meta_epoch": "2025-12-17T00:25:35.508576",
        "meta_mean_motion": 13.4258527,
        "meta_eccentricity": 0.00929974,
        "meta_inclination": 90.036,
        "meta_ra_of_asc_node": 20.609,
        "meta_arg_of_pericenter": 227.5741,
        "meta_mean_anomaly": 193.6051,
        "meta_ephemeris_type": 0,
        "meta_classification_type": "U",
        "meta_norad_cat_id": 19420,
        "meta_element_set_no": 999,
        "meta_rev_at_epoch": 82708,
        "meta_bstar": 0.00015621007,
        "meta_mean_motion_dot": 9.9e-07,
        "meta_mean_motion_ddot": 0,
        "tle_line1": "1 19420U 88074B   25351.01777209  .00000099  00000+0  15621-3 0  9997",
        "tle_line2": "2 19420  90.0360  20.6090 0092997 227.5741 193.6051 13.42585270827084"
      },
      "geometry": {
        "type": "Point",
        "coordinates": [
          20.6175977831685,
          -11.482412439242625
        ]
      }
    }
  ]
}